K14QG9V 23.5   0.15 K148U 354.70707  193.20361  166.23294    7.05230  0.5693561  0.21433346   2.7653031  7 E2014-Q51    10   1    3 days 0.11 M-v 38h MPCW       0804          2014 QV169         20140825
K14QQ5Z 25.3   0.15 K148U 270.05494  122.13714  332.71016   26.25450  0.2531387  1.04552431   0.9614203  7 E2014-Q81    21   1    5 days 0.48 M-v 3Eh MPCALB     0802          2014 QZ265         20140828
K14QQ6K 19.2   0.15 K148U 343.63927   38.99281  340.51297   12.94220  0.5761223  0.21390634   2.7689830  6 E2014-Q73    16   1    5 days 0.07 M-v 38h MPCALB     0804          2014 QK266         20140827
K14QQ6L 21.9   0.15 K148U  26.73589  133.40112  144.23701    9.56182  0.4326331  0.37967391   1.8888416  6 E2014-Q63    15   1    6 days 0.20 M-v 3Eh MPCW       0804          2014 QL266         20140826
K14QQ6M 24.3   0.15 K148U 346.38495  112.37821  334.18499   10.30006  0.8111765  0.28851479   2.2682486  7 E2014-Q73    13   1    5 days 0.12 M-v 3Eh MPCALB     0803          2014 QM266         20140827
K14QQ6N 26.2   0.15 K148U  93.88435   61.61055  171.12360    0.48794  0.0927277  0.91273935   1.0525390  6 E2014-Q90    21   1    5 days 0.28 M-v 3Eh MPCALB     0803          2014 QN266         20140829
K14QQ6O 22.3   0.15 K148U   3.76162  340.02040  337.65022    8.39709  0.4859232  0.24727904   2.5138799  7 E2014-Q63    12   1    5 days 0.17 M-v 38h MPCW       0804          2014 QO266         20140826
K14QQ6P 19.6   0.15 K148U 105.44299   40.17538  154.98160   34.17980  0.3535743  0.44666530   1.6949149  8 E2014-Q63    13   1    5 days 0.08 M-v 3Eh MPCW       0804          2014 QP266         20140827
K14QQ6Q 20.5   0.15 K148U 311.99871  116.97856  352.40305   45.12513  0.5953241  0.59654188   1.3975760  8 E2014-Q73    18   1    4 days 0.19 M-v 3Eh MPCALB     0803          2014 QQ266         20140827
K14QQ6X 22.1   0.15 K148U  49.54534  262.82732  355.95486    2.82607  0.2229827  0.58808076   1.4109493  7 E2014-Q73    12   1    5 days 0.12 M-v 3Eh MPCW       0804          2014 QX266         20140827
K14QT5O 26.8   0.15 K148U 334.99661  247.52213  149.08255    3.94801  0.4194233  0.53680205   1.4994314  8 E2014-Q73     9   1    2 days 0.39 M-v 3Eh MPCW       0803          2014 QO295         20140827
K14QT5R 18.5   0.15 K148U 325.39456    9.42696   63.59563    8.63430  0.7208640  0.23989059   2.5652355  8 E2014-Q73    13   1    6 days 0.32 M-v 3Eh MPCW       0803          2014 QR295         20140827
K14QT5S 21.9   0.15 K148U 276.60833  353.83108  110.90061    6.27471  0.5348342  0.82070221   1.1298279  9 E2014-Q73    10   1    6 days 0.18 M-v 3Eh MPCW       0803          2014 QS295         20140827
K14QT5T 26.1   0.15 K148U 340.00223  180.06393  221.38891    0.83343  0.5273351  0.41028466   1.7936837  7 E2014-Q90    12   1    8 days 0.14 M-v 3Eh MPCALB     0803          2014 QT295         20140830
K14QT5V 24.9   0.15 K148U 356.71271  342.44139    5.43575    1.89614  0.5313430  0.28474296   2.2882355  7 E2014-Q73    13   1    6 days 0.16 M-v 3Eh MPCW       0804          2014 QV295         20140828
K14QT5Z 24.8   0.15 K148U 261.79633  325.81547  143.90426    1.34051  0.3375363  1.05690553   0.9545059  8 E2014-Q90    16   1   10 days 0.30 M-v 3Eh MPCADO     0802          2014 QZ295         20140830
K14QT6K 18.6   0.15 K148U  85.40423  228.26988  351.86716   17.62745  0.3436478  0.39631830   1.8355799  7 E2014-Q81    19   1    6 days 0.20 M-v 38h MPCALB     0804          2014 QK296         20140828
K14QT6N 26.0   0.15 K148U   7.65273  163.86111  146.17393    0.74013  0.5329931  0.29631407   2.2282703  4 E2014-Q81     8   1    7 days 0.14 M-v 3Eh MPCW       0804          2014 QN296         20140827
K14QT6O 20.1   0.15 K148U  32.93847   30.17264  193.74096   10.89668  0.4645296  0.40208242   1.8179949  8 E2014-Q90    18   1   10 days 0.22 M-v 3Eh MPCADO     8803          2014 QO296         20140830
K14QT6P 22.5   0.15 K148U 337.15633   43.94629  331.58755   31.80161  0.2607786  0.46644876   1.6466454  8 E2014-Q81    20   1    8 days 0.35 M-v 38h MPCW       0804          2014 QP296         20140828
K14QT6Q 21.4   0.15 K148U 338.68283   82.62672  321.60760    5.17397  0.5109678  0.26975118   2.3722501  7 E2014-Q81    14   1    6 days 0.15 M-v 38h MPCW       0804          2014 QQ296         20140828
K14QT6R 25.0   0.15 K148U  30.07758  137.73454  155.12169    9.93905  0.2094572  0.70007819   1.2561409  7 E2014-Q90    15   1    3 days 0.39 M-v 3Eh MPCADO     0803          2014 QR296         20140830
K14QT6S 20.7   0.15 K148U  56.91908  222.29379   17.25843    7.27238  0.4277675  0.63803567   1.3363065  9 E2014-Q90    13   1    6 days 0.26 M-v 3Eh MPCW       0803          2014 QS296         20140829
K14QT6T 21.4   0.15 K148U  51.07060   97.08680  151.75528   24.59227  0.4376388  0.56857199   1.4430423  7 E2014-Q90    13   1    6 days 0.13 M-v 3Eh MPCW       0803          2014 QT296         20140829
K14QT6U 24.3   0.15 K148U   5.37627  336.42750  335.71889    7.62635  0.5663012  0.21882685   2.7273171  7 E2014-Q90     9   1    4 days 0.19 M-v 38h MPCW       0804          2014 QU296         20140829
K14QT6V 23.7   0.15 K148U  62.68870  254.96045  341.91623    5.88910  0.3423547  0.76890746   1.1800127  8 E2014-Q90    10   1    2 days 0.27 M-v 3Eh MPCW       0803          2014 QV296         20140829
K14QT6W 18.3   0.15 K148U 330.69252  303.82652   88.73625    9.77216  0.3527469  0.34823653   2.0008744  4 E2014-Q90    27   1   52 days 0.25 M-v 38h MPCS       0804          2014 QW296         20140827
K2411   17.2   0.15 K148U 331.03459   40.53271  192.01204   16.25894  0.7512774  0.31180302   2.1538519  1 MPO148337   156   5 1979-2008 0.44 M-v 3Eh MPCW       1803 (202411) 2005 RC            20081130
K2421    3.4   0.15 K148U 223.29730  220.87073  307.91147   25.73662  0.1483506  0.00345679  43.3198842  2 MPO281089   193  14 1990-2013 0.23 M-v 38h MPCLINUX   000A (202421) 2005 UQ513         20131127
K2435   18.0   0.15 K148U 209.95716  159.08306   79.73130   29.06330  0.6915273  0.64813267   1.3223917  2 MPO220562   131   5 2005-2012 0.47 M-h 3Eh MPCLINUX   1803 (202435) 2005 XH8           20120126
K2683   19.8   0.15 K148U 282.29856   56.32702  193.33209    3.43136  0.5624695  1.93889573   0.6369418  3 MPO217645    82   6 2005-2011 0.44 M-h 3Eh MPCLINUX   C805 (202683) 2006 US216         20111209
K3015   18.3   0.15 K148U  41.31149  147.08214  298.92520   26.76154  0.1433699  0.54351929   1.4870517  2 MPO264481   157   6 1999-2013 0.58 M-v 38h MPCLINUX   0804 (203015) 1999 YF3           20130522
K3217   18.6   0.15 K148U  34.39224  291.92134  184.50863    3.49606  0.3308719  0.36690479   1.9324153  1 MPO273444   218   5 2000-2013 0.44 M-v 38h MPCLINUX   0804 (203217) 2001 FX9           20131009
K3471   19.3   0.15 K148U 164.26104  205.16941   99.47691   17.18602  0.3735676  1.24552269   0.8555294  2 MPO257885   193   5 1994-2013 0.46 M-h 3Eh MPCLINUX   0802 (203471) 2002 AU4           20130127
K4131   19.8   0.15 K148U 315.85199   29.31630  292.03323    5.65769  0.6325620  0.80330266   1.1460843  2 MPO285194   147   7 2002-2014 0.39 M-h 3Eh MPCLINUX   0803 (204131) 2003 YL            20140125
K4232   18.4   0.15 K148U  86.33627  343.32650  329.28674   17.33716  0.5635469  0.70731625   1.2475567  2 MPO220565   144   7 2002-2012 0.58 M-h 3Eh MPCLINUX   0803 (204232) 2004 DG2           20120128
K5378   18.6   0.15 K148U 327.33129  209.95244  134.60647   19.35943  0.1414184  0.61920456   1.3632640  1 MPO302878   145   6 2001-2014 0.50 M-v 38h MPCLINUX   0804 (205378) 2001 BJ16          20140711
K5388   20.6   0.15 K148U 128.48407  212.70805  325.42323   12.36755  0.1707885  0.61232964   1.3734490  1 MPO300032    75   5 2001-2014 0.54 M-v 38h MPCLINUX   0804 (205388) 2001 DV8           20140627
K5744   18.1   0.15 K148U 196.62263  103.85335  156.25139   11.92829  0.7480387  0.28301223   2.2975550  0 MPO208140   320   4 1995-2009 0.49 M-h 3Eh MPCLINUX   9803 (205744) 2002 BK25          20090224
K6298   15.8   0.15 K148U 324.27501  212.83761  336.45159    4.10983  0.3535034  0.16505465   3.2914268  1 MPO281112   160   6 1997-2013 0.48 M-v 38h MPCLINUX   0000 (206298) 2003 DO20          20131203
K6310   15.6   0.15 K148U 310.62548  305.89310  237.77013    6.17877  0.3871072  0.15797017   3.3891126  1 MPO276604   162   6 2001-2013 0.59 M-v 38h MPCLINUX   0000 (206310) 2003 HG38          20131109
K6359   18.2   0.15 K148U 137.93876  302.98787  149.17791   33.10723  0.3035209  0.41073829   1.7923628  1 MPO302882   116   7 2003-2014 0.43 M-v 38h MPCLINUX   1804 (206359) 2003 QM47          20140411
K6378   18.7   0.15 K148U 201.85254   43.75066  317.29804    6.74046  0.4397347  0.41164093   1.7897417  0 MPO287862   630   6 2002-2014 0.46 M-h 3Eh MPCLINUX   8804 (206378) 2003 RB            20140306
K6910   17.1   0.15 K148U 140.43749  270.95829  157.61725    4.97428  0.7215310  0.23996124   2.5647319  0 MPO264493   493   7 2001-2013 0.47 M-h 3Eh MPCLINUX   9803 (206910) 2004 NL8           20130503
K7398   20.4   0.15 K148U 285.54994   79.54880  126.00869    2.59319  0.6389162  0.32546262   2.0931578  0 MPO237067   337   6 2003-2012 0.40 M-h 3Eh MPCLINUX   8803 (207398) 2006 AS2           20120817
K7945   19.5   0.15 K148U 248.25080  301.88228   53.88487    8.70999  0.1186833  0.93047957   1.0391179  2 MPO159061   150   5 1955-2009 0.54 M-v 3Eh MPCALB     8803 (207945) 1991 JW            20090617
K7970   18.1   0.15 K148U 125.96530  278.12492  178.35539    3.37175  0.5246365  0.22944138   2.6425399  0 MPO257908   183   5 1982-2013 0.57 M-v 38h MPCLINUX   1804 (207970) 1996 BZ3           20130305
K8023   20.4   0.15 K148U 312.79078  300.47350  327.16597    6.50053  0.2357015  1.09206639   0.9339064  1 MPO152574   262   4 1999-2009 0.46 M-v 3Eh MPCALB     8802 (208023) 1999 AQ10          20090217
K8115   20.7   0.15 K148U 335.96235  292.38603  135.60098   23.29477  0.3547285  0.66538196   1.2994374  2 MPO152604    58   5 2000-2009 0.55 M-v 3Eh MPCADO     8803 (208115) 2000 CT101         20090223
